[{"OBJECT_NAME":"CUBEBEL 2 (EU11S)","OBJECT_ID":"2023-091K","EPOCH":"2026-03-09T21:40:29.186112","MEAN_MOTION":15.26706784,"ECCENTRICITY":0.00118653,"INCLINATION":97.517,"RA_OF_ASC_NODE":131.3579,"ARG_OF_PERICENTER":105.889,"MEAN_ANOMALY":254.3657,"EPHEMERIS_TYPE":0,"CLASSIFICATION_TYPE":"U","NORAD_CAT_ID":57175,"ELEMENT_SET_NO":999,"REV_AT_EPOCH":14914,"BSTAR":0.00056688644,"MEAN_MOTION_DOT":0.00014859,"MEAN_MOTION_DDOT":0},{"OBJECT_NAME":"STARLINK-33959","OBJECT_ID":"2025-092P","EPOCH":"2026-03-09T07:46:25.603680","MEAN_MOTION":15.2759478,"ECCENTRICITY":0.00023516,"INCLINATION":42.9947,"RA_OF_ASC_NODE":174.184,"ARG_OF_PERICENTER":286.5649,"MEAN_ANOMALY":73.4944,"EPHEMERIS_TYPE":0,"CLASSIFICATION_TYPE":"U","NORAD_CAT_ID":63817,"ELEMENT_SET_NO":999,"REV_AT_EPOCH":4861,"BSTAR":0.0010890847,"MEAN_MOTION_DOT":0.00029843,"MEAN_MOTION_DDOT":0}]
